start=new Date('2022-10-28T00:00:00.000Z').valueOf();
sats=[{"EPOCH":"2022-10-27T08:15:40.781664","MEAN_ANOMALY":"323.4212","CENTER_NAME":"EARTH","MEAN_MOTION":"15.06397169","GP_ID":"216303186","TIME_SYSTEM":"UTC","DECAY_DATE":null,"LAUNCH_DATE":"2021-04-07","EPHEMERIS_TYPE":"0","PERIOD":"95.592","REF_FRAME":"TEME","ECCENTRICITY":"0.00023390","ARG_OF_PERICENTER":"36.6936","REV_AT_EPOCH":"8712","CLASSIFICATION_TYPE":"U","ELEMENT_SET_NO":"999","MEAN_MOTION_DDOT":"0.0000000000000","OBJECT_ID":"2021-027AA","TLE_LINE2":"2 48116  53.0552 290.3585 0002339  36.6936 323.4212 15.06397169 87126","FILE":"3635758","MEAN_MOTION_DOT":"0.00001443","BSTAR":"0.00011578000000","APOAPSIS":"548.842","COUNTRY_CODE":"US","INCLINATION":"53.0552","RCS_SIZE":"LARGE","TLE_LINE1":"1 48116U 21027AA  22300.34422201  .00001443  00000-0  11578-3 0  9994","SEMIMAJOR_AXIS":"6925.357","NORAD_CAT_ID":"48116","SITE":"AFETR","OBJECT_TYPE":"PAYLOAD","OBJECT_NAME":"STARLINK-2454","RA_OF_ASC_NODE":"290.3585","PERIAPSIS":"545.602","MEAN_ELEMENT_THEORY":"SGP4"},{"DECAY_DATE":null,"LAUNCH_DATE":"2021-04-07","TIME_SYSTEM":"UTC","GP_ID":"216335175","MEAN_MOTION":"15.06402658","CENTER_NAME":"EARTH","MEAN_ANOMALY":"307.3781","EPOCH":"2022-10-27T15:32:12.085440","MEAN_MOTION_DOT":"0.00003975","BSTAR":"0.00028556000000","FILE":"3636022","TLE_LINE2":"2 48117  53.0550 269.0064 0002146  52.7404 307.3781 15.06402658 87453","OBJECT_ID":"2021-027AB","MEAN_MOTION_DDOT":"0.0000000000000","ELEMENT_SET_NO":"999","REV_AT_EPOCH":"8745","CLASSIFICATION_TYPE":"U","ARG_OF_PERICENTER":"52.7404","EPHEMERIS_TYPE":"0","PERIOD":"95.592","REF_FRAME":"TEME","ECCENTRICITY":"0.00021460","SEMIMAJOR_AXIS":"6925.340","RCS_SIZE":"LARGE","TLE_LINE1":"1 48117U 21027AB  22300.64736210  .00003975  00000-0  28556-3 0  9992","COUNTRY_CODE":"US","INCLINATION":"53.0550","APOAPSIS":"548.692","RA_OF_ASC_NODE":"269.0064","MEAN_ELEMENT_THEORY":"SGP4","PERIAPSIS":"545.719","OBJECT_NAME":"STARLINK-2455","OBJECT_TYPE":"PAYLOAD","SITE":"AFETR","NORAD_CAT_ID":"48117"},{"OBJECT_TYPE":"PAYLOAD","SITE":"AFETR","NORAD_CAT_ID":"48118","OBJECT_NAME":"STARLINK-2458","RA_OF_ASC_NODE":"270.4464","MEAN_ELEMENT_THEORY":"SGP4","PERIAPSIS":"545.820","APOAPSIS":"548.682","COUNTRY_CODE":"US","INCLINATION":"53.0540","TLE_LINE1":"1 48118U 21027AC  22300.32763525 -.00003197  00000-0 -19585-3 0  9997","RCS_SIZE":"LARGE","SEMIMAJOR_AXIS":"6925.386","EPHEMERIS_TYPE":"0","PERIOD":"95.593","REF_FRAME":"TEME","ECCENTRICITY":"0.00020660","ARG_OF_PERICENTER":"45.7173","CLASSIFICATION_TYPE":"U","ELEMENT_SET_NO":"999","REV_AT_EPOCH":"8740","MEAN_MOTION_DDOT":"0.0000000000000","TLE_LINE2":"2 48118  53.0540 270.4464 0002066  45.7173 314.3985 15.06387697 87403","OBJECT_ID":"2021-027AC","FILE":"3635758","MEAN_MOTION_DOT":"-0.00003197","BSTAR":"-0.00019585000000","MEAN_ANOMALY":"314.3985","EPOCH":"2022-10-27T07:51:47.685600","CENTER_NAME":"EARTH","MEAN_MOTION":"15.06387697","TIME_SYSTEM":"UTC","GP_ID":"216304680","LAUNCH_DATE":"2021-04-07","DECAY_DATE":null},{"EPHEMERIS_TYPE":"0","PERIOD":"95.571","ECCENTRICITY":"0.00024720","REF_FRAME":"TEME","ARG_OF_PERICENTER":"49.1172","ELEMENT_SET_NO":"999","CLASSIFICATION_TYPE":"U","REV_AT_EPOCH":"8703","MEAN_MOTION_DDOT":"0.0000000000000","OBJECT_ID":"2021-027AD","TLE_LINE2":"2 48119  53.0539 269.5694 0002472  49.1172 311.0031 15.06735506 87035","FILE":"3635576","MEAN_MOTION_DOT":"0.00130119","BSTAR":"0.00851710000000","MEAN_ANOMALY":"311.0031","EPOCH":"2022-10-27T12:31:34.774464","CENTER_NAME":"EARTH","MEAN_MOTION":"15.06735506","GP_ID":"216277701","TIME_SYSTEM":"UTC","LAUNCH_DATE":"2021-04-07","DECAY_DATE":null,"NORAD_CAT_ID":"48119","SITE":"AFETR","OBJECT_TYPE":"PAYLOAD","OBJECT_NAME":"STARLINK-2459","RA_OF_ASC_NODE":"269.5694","PERIAPSIS":"544.474","MEAN_ELEMENT_THEORY":"SGP4","APOAPSIS":"547.897","COUNTRY_CODE":"US","INCLINATION":"53.0539","RCS_SIZE":"LARGE","TLE_LINE1":"1 48119U 21027AD  22300.52193026  .00130119  00000-0  85171-2 0  9999","SEMIMAJOR_AXIS":"6924.320"},{"OBJECT_NAME":"STARLINK-2460","MEAN_ELEMENT_THEORY":"SGP4","PERIAPSIS":"545.619","RA_OF_ASC_NODE":"288.9521","SITE":"AFETR","NORAD_CAT_ID":"48120","OBJECT_TYPE":"PAYLOAD","INCLINATION":"53.0545","COUNTRY_CODE":"US","APOAPSIS":"548.699","SEMIMAJOR_AXIS":"6925.294","RCS_SIZE":"LARGE","TLE_LINE1":"1 48120U 21027AE  22300.66120977  .00006925  00000-0  48309-3 0  9991","ARG_OF_PERICENTER":"45.8111","ELEMENT_SET_NO":"999","REV_AT_EPOCH":"8718","CLASSIFICATION_TYPE":"U","REF_FRAME":"TEME","ECCENTRICITY":"0.00022240","PERIOD":"95.591","EPHEMERIS_TYPE":"0","FILE":"3636022","BSTAR":"0.00048309000000","MEAN_MOTION_DOT":"0.00006925","MEAN_MOTION_DDOT":"0.0000000000000","OBJECT_ID":"2021-027AE","TLE_LINE2":"2 48120  53.0545 288.9521 0002224  45.8111 314.3061 15.06417827 87187","MEAN_MOTION":"15.06417827","EPOCH":"2022-10-27T15:52:08.524128","MEAN_ANOMALY":"314.3061","CENTER_NAME":"EARTH","GP_ID":"216334428","TIME_SYSTEM":"UTC","DECAY_DATE":null,"LAUNCH_DATE":"2021-04-07"},{"APOAPSIS":"548.605","INCLINATION":"53.0551","COUNTRY_CODE":"US","TLE_LINE1":"1 48121U 21027AF  22300.36725742  .00004427  00000-0  31592-3 0  9991","RCS_SIZE":"LARGE","SEMIMAJOR_AXIS":"6925.346","NORAD_CAT_ID":"48121","SITE":"AFETR","OBJECT_TYPE":"PAYLOAD","OBJECT_NAME":"STARLINK-2462","PERIAPSIS":"545.817","MEAN_ELEMENT_THEORY":"SGP4","RA_OF_ASC_NODE":"280.2670","MEAN_ANOMALY":"307.3220","EPOCH":"2022-10-27T08:48:51.041088","CENTER_NAME":"EARTH","MEAN_MOTION":"15.06400971","GP_ID":"216304439","TIME_SYSTEM":"UTC","LAUNCH_DATE":"2021-04-07","DECAY_DATE":null,"ECCENTRICITY":"0.00020130","REF_FRAME":"TEME","PERIOD":"95.592","EPHEMERIS_TYPE":"0","ARG_OF_PERICENTER":"52.7952","CLASSIFICATION_TYPE":"U","REV_AT_EPOCH":"8726","ELEMENT_SET_NO":"999","MEAN_MOTION_DDOT":"0.0000000000000","TLE_LINE2":"2 48121  53.0551 280.2670 0002013  52.7952 307.3220 15.06400971 87261","OBJECT_ID":"2021-027AF","FILE":"3635758","BSTAR":"0.00031592000000","MEAN_MOTION_DOT":"0.00004427"},{"MEAN_MOTION_DDOT":"0.0000000000000","OBJECT_ID":"2021-027AG","TLE_LINE2":"2 48122  53.0541 275.5354 0002503  41.5333 318.5846 15.06397783 87332","FILE":"3635758","MEAN_MOTION_DOT":"0.00001446","BSTAR":"0.00011600000000","PERIOD":"95.592","EPHEMERIS_TYPE":"0","ECCENTRICITY":"0.00025030","REF_FRAME":"TEME","ARG_OF_PERICENTER":"41.5333","ELEMENT_SET_NO":"999","CLASSIFICATION_TYPE":"U","REV_AT_EPOCH":"8733","GP_ID":"216304180","TIME_SYSTEM":"UTC","LAUNCH_DATE":"2021-04-07","DECAY_DATE":null,"MEAN_ANOMALY":"318.5846","EPOCH":"2022-10-27T07:11:18.265344","CENTER_NAME":"EARTH","MEAN_MOTION":"15.06397783","OBJECT_TYPE":"PAYLOAD","SITE":"AFETR","NORAD_CAT_ID":"48122","OBJECT_NAME":"STARLINK-2463","RA_OF_ASC_NODE":"275.5354","PERIAPSIS":"545.487","MEAN_ELEMENT_THEORY":"SGP4","TLE_LINE1":"1 48122U 21027AG  22300.29951696  .00001446  00000-0  11600-3 0  9999","RCS_SIZE":"LARGE","SEMIMAJOR_AXIS":"6925.355","APOAPSIS":"548.954","COUNTRY_CODE":"US","INCLINATION":"53.0541"},{"DECAY_DATE":null,"LAUNCH_DATE":"2021-04-07","TIME_SYSTEM":"UTC","GP_ID":"216334178","CENTER_NAME":"EARTH","EPOCH":"2022-10-27T15:22:56.988768","MEAN_ANOMALY":"314.6652","MEAN_MOTION":"15.06400570","OBJECT_ID":"2021-027AH","TLE_LINE2":"2 48123  53.0551 269.0438 0002449  45.4536 314.6652 15.06400570 87456","MEAN_MOTION_DDOT":"0.0000000000000","MEAN_MOTION_DOT":"0.00003564","BSTAR":"0.00025807000000","FILE":"3636022","EPHEMERIS_TYPE":"0","PERIOD":"95.592","REF_FRAME":"TEME","ECCENTRICITY":"0.00024490","REV_AT_EPOCH":"8745","CLASSIFICATION_TYPE":"U","ELEMENT_SET_NO":"999","ARG_OF_PERICENTER":"45.4536","RCS_SIZE":"LARGE","TLE_LINE1":"1 48123U 21027AH  22300.64093737  .00003564  00000-0  25807-3 0  9999","SEMIMAJOR_AXIS":"6925.347","APOAPSIS":"548.908","COUNTRY_CODE":"US","INCLINATION":"53.0551","OBJECT_TYPE":"PAYLOAD","SITE":"AFETR","NORAD_CAT_ID":"48123","RA_OF_ASC_NODE":"269.0438","MEAN_ELEMENT_THEORY":"SGP4","PERIAPSIS":"545.516","OBJECT_NAME":"STARLINK-2464"},{"OBJECT_NAME":"STARLINK-2465","MEAN_ELEMENT_THEORY":"SGP4","PERIAPSIS":"545.587","RA_OF_ASC_NODE":"278.4446","SITE":"AFETR","OBJECT_TYPE":"PAYLOAD","NORAD_CAT_ID":"48124","INCLINATION":"53.0532","COUNTRY_CODE":"US","APOAPSIS":"548.778","SEMIMAJOR_AXIS":"6925.317","RCS_SIZE":"LARGE","TLE_LINE1":"1 48124U 21027AJ  22300.77270048  .00003628  00000-0  26227-3 0  9994","ARG_OF_PERICENTER":"48.1964","ELEMENT_SET_NO":"999","CLASSIFICATION_TYPE":"U","REV_AT_EPOCH":"8732","REF_FRAME":"TEME","ECCENTRICITY":"0.00023040","EPHEMERIS_TYPE":"0","PERIOD":"95.591","FILE":"3636022","BSTAR":"0.00026227000000","MEAN_MOTION_DOT":"0.00003628","MEAN_MOTION_DDOT":"0.0000000000000","TLE_LINE2":"2 48124  53.0532 278.4446 0002304  48.1964 311.9221 15.06410134 87329","OBJECT_ID":"2021-027AJ","MEAN_MOTION":"15.06410134","EPOCH":"2022-10-27T18:32:41.321472","MEAN_ANOMALY":"311.9221","CENTER_NAME":"EARTH","TIME_SYSTEM":"UTC","GP_ID":"216334928","DECAY_DATE":null,"LAUNCH_DATE":"2021-04-07"},{"OBJECT_ID":"2021-027AK","TLE_LINE2":"2 48125  53.0545 288.6269 0002067  53.7269 306.3911 15.06407346 87196","MEAN_MOTION_DDOT":"0.0000000000000","MEAN_MOTION_DOT":"0.00003395","BSTAR":"0.00024668000000","FILE":"3636022","PERIOD":"95.592","EPHEMERIS_TYPE":"0","ECCENTRICITY":"0.00020670","REF_FRAME":"TEME","REV_AT_EPOCH":"8719","ELEMENT_SET_NO":"999","CLASSIFICATION_TYPE":"U","ARG_OF_PERICENTER":"53.7269","DECAY_DATE":null,"LAUNCH_DATE":"2021-04-07","GP_ID":"216335176","TIME_SYSTEM":"UTC","CENTER_NAME":"EARTH","EPOCH":"2022-10-27T18:52:37.853472","MEAN_ANOMALY":"306.3911","MEAN_MOTION":"15.06407346","OBJECT_TYPE":"PAYLOAD","SITE":"AFETR","NORAD_CAT_ID":"48125","RA_OF_ASC_NODE":"288.6269","PERIAPSIS":"545.760","MEAN_ELEMENT_THEORY":"SGP4","OBJECT_NAME":"STARLINK-2466","RCS_SIZE":"LARGE","TLE_LINE1":"1 48125U 21027AK  22300.78654923  .00003395  00000-0  24668-3 0  9992","SEMIMAJOR_AXIS":"6925.326","APOAPSIS":"548.623","COUNTRY_CODE":"US","INCLINATION":"53.0545"}];
